{"type": "FeatureCollection", "name": "Territorio_Itaparica_BA", "crs": {"type": "name", "properties": {"name": "urn:ogc:def:crs:OGC:1.3:CRS84"}}, "features": [{"type": "Feature", "geometry": {"type": "Polygon", "coordinates": [[[-38.0033, -9.515], [-38.0032, -9.5108], [-38.0022, -9.5066], [-37.9979, -9.4993], [-37.9989, -9.4977], [-38.0013, -9.4956], [-38.0038, -9.4906], [-38.0084, -9.4839], [-38.0091, -9.4824], [-38.0092, -9.481], [-38.0109, -9.4787], [-38.0144, -9.4767], [-38.0187, -9.4766], [-38.0199, -9.4759], [-38.0217, -9.4732], [-38.0217, -9.4714], [-38.0222, -9.47], [-38.0299, -9.4669], [-38.0329, -9.4669], [-38.0361, -9.4658], [-38.0374, -9.4662], [-38.0412, -9.4685], [-38.0432, -9.4686], [-38.0466, -9.467], [-38.0505, -9.4644], [-38.0557, -9.4619], [-38.0561, -9.4599], [-38.0576, -9.4592], [-38.0661, -9.4581], [-38.0678, -9.4585], [-38.0687, -9.4564], [-38.0682, -9.4537], [-38.0684, -9.4523], [-38.0703, -9.448], [-38.074, -9.4439], [-38.0778, -9.4411], [-38.0797, -9.4404], [-38.0854, -9.4392], [-38.0879, -9.4391], [-38.0967, -9.437], [-38.1089, -9.4356], [-38.1134, -9.4362], [-38.1147, -9.4373], [-38.1181, -9.4423], [-38.1215, -9.4415], [-38.1302, -9.4387], [-38.1357, -9.4388], [-38.1419, -9.4378], [-38.1446, -9.4395], [-38.1514, -9.4423], [-38.154, -9.4435], [-38.1549, -9.4434], [-38.1559, -9.4417], [-38.1573, -9.4404], [-38.1646, -9.4358], [-38.1669, -9.4349], [-38.1707, -9.432], [-38.1745, -9.4303], [-38.1777, -9.4254], [-38.1813, -9.4258], [-38.1839, -9.4253], [-38.1875, -9.4236], [-38.1912, -9.4229], [-38.2026, -9.4198], [-38.2048, -9.4187], [-38.205, -9.4167], [-38.2037, -9.4072], [-38.2029, -9.4032], [-38.2019, -9.4004], [-38.2009, -9.3989], [-38.1942, -9.3944], [-38.1958, -9.3916], [-38.1959, -9.3905], [-38.1943, -9.3857], [-38.1945, -9.3849], [-38.1976, -9.3829], [-38.2003, -9.3794], [-38.2018, -9.3758], [-38.2036, -9.3728], [-38.2056, -9.3636], [-38.2081, -9.3601], [-38.2149, -9.353], [-38.2153, -9.3529], [-38.2308, -9.358], [-38.245, -9.3631], [-38.2564, -9.3687], [-38.2603, -9.3711], [-38.263, -9.3716], [-38.2704, -9.3753], [-38.2735, -9.3779], [-38.275, -9.3783], [-38.2765, -9.3798], [-38.2775, -9.3821], [-38.2789, -9.3831], [-38.2818, -9.3844], [-38.2841, -9.3851], [-38.2865, -9.3853], [-38.2889, -9.3861], [-38.2925, -9.386], [-38.2953, -9.3849], [-38.2977, -9.3853], [-38.2985, -9.387], [-38.301, -9.3877], [-38.3057, -9.3866], [-38.3095, -9.3861], [-38.3144, -9.3848], [-38.3212, -9.379], [-38.3265, -9.3804], [-38.3296, -9.3821], [-38.3324, -9.3833], [-38.3374, -9.3884], [-38.3398, -9.3899], [-38.342, -9.3905], [-38.3428, -9.3897], [-38.3433, -9.387], [-38.3452, -9.3856], [-38.3477, -9.3845], [-38.3504, -9.384], [-38.3534, -9.3843], [-38.355, -9.3841], [-38.3592, -9.3829], [-38.361, -9.3821], [-38.3635, -9.3818], [-38.366, -9.3824], [-38.3702, -9.3862], [-38.3748, -9.3887], [-38.3766, -9.3902], [-38.3785, -9.3931], [-38.3826, -9.3986], [-38.3843, -9.4003], [-38.3889, -9.4029], [-38.3924, -9.4043], [-38.395, -9.4048], [-38.3985, -9.4046], [-38.4032, -9.4033], [-38.4058, -9.4029], [-38.408, -9.4032], [-38.4166, -9.4062], [-38.4184, -9.4066], [-38.424, -9.4073], [-38.4268, -9.4085], [-38.4319, -9.4093], [-38.4351, -9.4102], [-38.4374, -9.4118], [-38.4391, -9.4137], [-38.4412, -9.4133], [-38.4423, -9.4122], [-38.4442, -9.4091], [-38.4463, -9.407], [-38.4485, -9.4054], [-38.4521, -9.4043], [-38.4555, -9.4039], [-38.457, -9.4034], [-38.5087, -9.3537], [-38.5048, -9.3879], [-38.5, -9.4291], [-38.4931, -9.4898], [-38.4932, -9.5001], [-38.4928, -9.5119], [-38.493, -9.5176], [-38.4924, -9.526], [-38.4915, -9.5297], [-38.4928, -9.5358], [-38.499, -9.5468], [-38.5002, -9.553], [-38.499, -9.5641], [-38.499, -9.5733], [-38.5032, -9.5837], [-38.5044, -9.5986], [-38.5068, -9.6114], [-38.5052, -9.6211], [-38.5083, -9.6304], [-38.517, -9.6379], [-38.532, -9.6498], [-38.5316, -9.6509], [-38.5319, -9.6543], [-38.5337, -9.6584], [-38.5352, -9.6608], [-38.537, -9.6634], [-38.5427, -9.6688], [-38.547, -9.6764], [-38.5477, -9.6784], [-38.5479, -9.6836], [-38.5489, -9.6855], [-38.4878, -9.7125], [-38.483, -9.7099], [-38.4796, -9.7087], [-38.4763, -9.7089], [-38.472, -9.7088], [-38.4693, -9.7084], [-38.4641, -9.7092], [-38.46, -9.7092], [-38.4585, -9.7089], [-38.4523, -9.7067], [-38.4505, -9.7059], [-38.4433, -9.6989], [-38.443, -9.6986], [-38.4247, -9.7007], [-38.4008, -9.7032], [-38.3637, -9.7068], [-38.3635, -9.705], [-38.3639, -9.7028], [-38.3636, -9.6998], [-38.3622, -9.6969], [-38.3609, -9.6957], [-38.3546, -9.6917], [-38.3541, -9.6906], [-38.354, -9.6883], [-38.3525, -9.6856], [-38.3517, -9.6831], [-38.3514, -9.6787], [-38.3509, -9.678], [-38.3484, -9.6775], [-38.3457, -9.6762], [-38.3439, -9.6759], [-38.3404, -9.676], [-38.3375, -9.6752], [-38.3348, -9.6739], [-38.3328, -9.6726], [-38.3274, -9.6701], [-38.3259, -9.669], [-38.321, -9.6676], [-38.3202, -9.6664], [-38.3188, -9.6658], [-38.3171, -9.6663], [-38.316, -9.6657], [-38.3147, -9.664], [-38.3133, -9.6631], [-38.3082, -9.6611], [-38.3062, -9.6611], [-38.3037, -9.6618], [-38.3014, -9.6639], [-38.2853, -9.6906], [-38.2248, -9.6745], [-38.1945, -9.6772], [-38.191, -9.6769], [-38.1874, -9.6752], [-38.1846, -9.6729], [-38.1826, -9.6717], [-38.1804, -9.6711], [-38.1775, -9.6698], [-38.1759, -9.6696], [-38.1737, -9.6712], [-38.1709, -9.6723], [-38.1673, -9.6727], [-38.1651, -9.6735], [-38.1618, -9.6755], [-38.1574, -9.6776], [-38.1542, -9.6758], [-38.1543, -9.6729], [-38.1532, -9.6712], [-38.1535, -9.6675], [-38.1501, -9.6606], [-38.1486, -9.6591], [-38.1459, -9.6584], [-38.1447, -9.6585], [-38.1484, -9.6496], [-38.1365, -9.6403], [-38.1263, -9.6458], [-38.1241, -9.6446], [-38.1244, -9.6398], [-38.1238, -9.6377], [-38.1224, -9.6358], [-38.1221, -9.6344], [-38.1242, -9.6285], [-38.1235, -9.6272], [-38.1216, -9.6266], [-38.1208, -9.6258], [-38.1212, -9.6241], [-38.1225, -9.6221], [-38.1228, -9.6204], [-38.1214, -9.6195], [-38.1186, -9.619], [-38.1164, -9.6151], [-38.1148, -9.6139], [-38.1129, -9.6132], [-38.1114, -9.6132], [-38.1073, -9.6151], [-38.1042, -9.6148], [-38.1022, -9.6132], [-38.1003, -9.6096], [-38.0983, -9.6087], [-38.096, -9.6089], [-38.0939, -9.6096], [-38.0917, -9.6109], [-38.0893, -9.6109], [-38.0893, -9.6083], [-38.0873, -9.6059], [-38.086, -9.6034], [-38.085, -9.6026], [-38.0848, -9.6006], [-38.0839, -9.599], [-38.0807, -9.598], [-38.0788, -9.5969], [-38.075, -9.5962], [-38.0721, -9.5951], [-38.0709, -9.5938], [-38.0691, -9.5928], [-38.0677, -9.5906], [-38.0627, -9.5877], [-38.061, -9.5876], [-38.0591, -9.5862], [-38.0562, -9.5863], [-38.0539, -9.5873], [-38.0531, -9.5883], [-38.0505, -9.5885], [-38.0466, -9.5865], [-38.0456, -9.585], [-38.0454, -9.5838], [-38.0434, -9.5832], [-38.0416, -9.5832], [-38.0411, -9.5825], [-38.0387, -9.5824], [-38.0372, -9.581], [-38.038, -9.5788], [-38.0398, -9.5782], [-38.0401, -9.5772], [-38.042, -9.575], [-38.042, -9.5735], [-38.0413, -9.5724], [-38.0383, -9.5707], [-38.0373, -9.5692], [-38.0356, -9.569], [-38.0318, -9.5673], [-38.0309, -9.5685], [-38.0309, -9.5741], [-38.0295, -9.5751], [-38.0284, -9.575], [-38.0268, -9.5736], [-38.0274, -9.5715], [-38.0266, -9.5681], [-38.023, -9.5653], [-38.021, -9.5649], [-38.0196, -9.5636], [-38.0194, -9.5626], [-38.0207, -9.5621], [-38.0209, -9.5609], [-38.0203, -9.5593], [-38.0202, -9.5564], [-38.0193, -9.5545], [-38.0186, -9.5507], [-38.0223, -9.5496], [-38.0239, -9.5485], [-38.0228, -9.5453], [-38.0225, -9.5432], [-38.0226, -9.5405], [-38.0198, -9.5385], [-38.0186, -9.5371], [-38.015, -9.5355], [-38.0143, -9.5338], [-38.0142, -9.5278], [-38.0081, -9.5225], [-38.0061, -9.52], [-38.0049, -9.5174], [-38.0033, -9.515]]]}, "properties": {"codigo_ibge": "2924009", "nome": "Paulo Afonso", "territorio": "Itaparica - Bahia"}}, {"type": "Feature", "geometry": {"type": "Polygon", "coordinates": [[[-39.1786, -12.5883], [-39.17, -12.5941], [-39.1656, -12.5927], [-39.1575, -12.5928], [-39.124, -12.5927], [-39.108, -12.5925], [-39.1002, -12.6025], [-39.0844, -12.6124], [-39.0836, -12.6142], [-39.0584, -12.6353], [-39.0447, -12.6278], [-39.0383, -12.6236], [-39.0309, -12.6217], [-39.0145, -12.6171], [-39.015, -12.6031], [-39.003, -12.6011], [-39.0003, -12.6001], [-38.9953, -12.5961], [-38.9938, -12.5956], [-38.9905, -12.5953], [-38.9923, -12.5941], [-38.9963, -12.5877], [-38.999, -12.5868], [-39.0027, -12.5852], [-39.0052, -12.5834], [-39.0064, -12.5811], [-39.0069, -12.5784], [-39.0089, -12.5745], [-39.0085, -12.5726], [-39.0072, -12.5701], [-39.0073, -12.5691], [-39.0086, -12.5677], [-39.0129, -12.567], [-39.0142, -12.5664], [-39.0151, -12.5649], [-39.0149, -12.5627], [-39.0155, -12.5616], [-39.0171, -12.5605], [-39.0184, -12.5585], [-39.021, -12.5576], [-39.022, -12.5568], [-39.0227, -12.5551], [-39.0255, -12.5523], [-39.0274, -12.5514], [-39.0311, -12.5509], [-39.0349, -12.5501], [-39.0363, -12.5488], [-39.0382, -12.5465], [-39.0416, -12.5457], [-39.045, -12.5446], [-39.0479, -12.5441], [-39.0532, -12.5419], [-39.0561, -12.5417], [-39.0579, -12.5405], [-39.0975, -12.5529], [-39.1108, -12.5558], [-39.1136, -12.5548], [-39.1161, -12.555], [-39.1191, -12.5557], [-39.1218, -12.556], [-39.1257, -12.5573], [-39.1286, -12.558], [-39.1336, -12.5595], [-39.1393, -12.562], [-39.1414, -12.5626], [-39.1456, -12.5651], [-39.1486, -12.5674], [-39.1515, -12.5712], [-39.1583, -12.5736], [-39.1611, -12.5736], [-39.1629, -12.5741], [-39.1629, -12.5757], [-39.1638, -12.5768], [-39.1652, -12.5773], [-39.1672, -12.5798], [-39.1694, -12.5817], [-39.1741, -12.5816], [-39.1754, -12.5831], [-39.1774, -12.5837], [-39.1785, -12.5861], [-39.1786, -12.5883]]]}, "properties": {"codigo_ibge": "2911600", "nome": "Glória", "territorio": "Itaparica - Bahia"}}, {"type": "Feature", "geometry": {"type": "Polygon", "coordinates": [[[-39.5333, -14.7423], [-39.5333, -14.7275], [-39.5264, -14.6791], [-39.5261, -14.677], [-39.5252, -14.676], [-39.5228, -14.6748], [-39.5212, -14.673], [-39.5176, -14.6669], [-39.5142, -14.6627], [-39.5127, -14.6615], [-39.5106, -14.6605], [-39.5116, -14.6579], [-39.5146, -14.6571], [-39.516, -14.6555], [-39.518, -14.6542], [-39.5207, -14.6533], [-39.5222, -14.6504], [-39.524, -14.6478], [-39.5242, -14.6424], [-39.5238, -14.6366], [-39.5231, -14.6343], [-39.5235, -14.631], [-39.5229, -14.6301], [-39.5229, -14.6278], [-39.52, -14.6169], [-39.5198, -14.6137], [-39.5193, -14.611], [-39.5183, -14.6096], [-39.5195, -14.6081], [-39.5194, -14.6055], [-39.5204, -14.6037], [-39.5212, -14.6005], [-39.5198, -14.5961], [-39.5183, -14.594], [-39.5188, -14.5883], [-39.5186, -14.5851], [-39.5181, -14.584], [-39.5165, -14.5828], [-39.5168, -14.5792], [-39.5157, -14.5768], [-39.5155, -14.5715], [-39.5142, -14.5697], [-39.5135, -14.568], [-39.513, -14.5651], [-39.5111, -14.5595], [-39.51, -14.5569], [-39.5101, -14.5554], [-39.5123, -14.5501], [-39.5111, -14.5476], [-39.5506, -14.5618], [-39.6062, -14.5616], [-39.65, -14.5615], [-39.6947, -14.5614], [-39.7291, -14.5613], [-39.7276, -14.5645], [-39.7275, -14.5666], [-39.7267, -14.5674], [-39.7229, -14.5683], [-39.7212, -14.5693], [-39.7183, -14.5692], [-39.7176, -14.5706], [-39.718, -14.573], [-39.7177, -14.5743], [-39.7163, -14.5762], [-39.7156, -14.5786], [-39.7178, -14.583], [-39.7205, -14.586], [-39.7219, -14.5868], [-39.7232, -14.5906], [-39.7227, -14.5939], [-39.7214, -14.5953], [-39.7213, -14.5968], [-39.7191, -14.5974], [-39.7188, -14.5981], [-39.7192, -14.6017], [-39.7181, -14.6038], [-39.717, -14.6044], [-39.7146, -14.6038], [-39.7127, -14.6039], [-39.7095, -14.6018], [-39.7081, -14.6018], [-39.7066, -14.6025], [-39.7039, -14.6045], [-39.7014, -14.606], [-39.6981, -14.6051], [-39.6738, -14.6228], [-39.6197, -14.6621], [-39.6014, -14.6837], [-39.5696, -14.7214], [-39.5699, -14.7235], [-39.5693, -14.7268], [-39.5704, -14.7281], [-39.5726, -14.7287], [-39.5737, -14.731], [-39.5772, -14.7341], [-39.5775, -14.735], [-39.5762, -14.7367], [-39.5731, -14.7383], [-39.572, -14.7399], [-39.5718, -14.7421], [-39.5729, -14.7438], [-39.5732, -14.7506], [-39.5737, -14.7519], [-39.5736, -14.7586], [-39.5747, -14.7615], [-39.5775, -14.7632], [-39.5813, -14.7687], [-39.5825, -14.7722], [-39.5821, -14.7748], [-39.5831, -14.7777], [-39.5834, -14.7809], [-39.5824, -14.7825], [-39.5836, -14.7844], [-39.5537, -14.7784], [-39.5526, -14.7763], [-39.5529, -14.7737], [-39.554, -14.7731], [-39.5549, -14.7701], [-39.5552, -14.7679], [-39.5549, -14.766], [-39.5514, -14.7637], [-39.5452, -14.7622], [-39.5436, -14.7606], [-39.5415, -14.76], [-39.5413, -14.7586], [-39.5418, -14.7558], [-39.5417, -14.7525], [-39.5424, -14.7513], [-39.5418, -14.7488], [-39.5402, -14.7472], [-39.5369, -14.7455], [-39.5358, -14.7446], [-39.535, -14.7427], [-39.5333, -14.7423]]]}, "properties": {"codigo_ibge": "2908002", "nome": "Chorrochó", "territorio": "Itaparica - Bahia"}}, {"type": "Feature", "geometry": {"type": "Polygon", "coordinates": [[[-40.3879, -14.2657], [-40.3855, -14.2661], [-40.3817, -14.2661], [-40.3794, -14.267], [-40.379, -14.2679], [-40.3808, -14.273], [-40.3797, -14.2743], [-40.3775, -14.2734], [-40.3763, -14.2735], [-40.3751, -14.2746], [-40.376, -14.2775], [-40.377, -14.2802], [-40.3785, -14.2824], [-40.3809, -14.2829], [-40.3823, -14.2821], [-40.3833, -14.2823], [-40.384, -14.2839], [-40.3836, -14.2851], [-40.3814, -14.2865], [-40.3803, -14.2899], [-40.3787, -14.2904], [-40.3769, -14.29], [-40.3789, -14.2967], [-40.3802, -14.3], [-40.3763, -14.303], [-40.3756, -14.3045], [-40.3726, -14.3059], [-40.3658, -14.3052], [-40.3624, -14.306], [-40.3602, -14.3079], [-40.3588, -14.3085], [-40.357, -14.3105], [-40.3567, -14.309], [-40.3568, -14.3062], [-40.3585, -14.3054], [-40.3607, -14.3033], [-40.3638, -14.3015], [-40.3676, -14.2976], [-40.3699, -14.2962], [-40.3703, -14.2939], [-40.3679, -14.2936], [-40.366, -14.2949], [-40.3631, -14.2931], [-40.361, -14.2927], [-40.3545, -14.2903], [-40.3539, -14.2871], [-40.3542, -14.2855], [-40.3541, -14.2808], [-40.3529, -14.2771], [-40.3534, -14.2746], [-40.3526, -14.274], [-40.3493, -14.2737], [-40.3482, -14.2739], [-40.3465, -14.2754], [-40.3431, -14.2759], [-40.3419, -14.2757], [-40.3397, -14.277], [-40.3386, -14.2772], [-40.3361, -14.2799], [-40.3326, -14.282], [-40.3287, -14.2828], [-40.3261, -14.2823], [-40.3035, -14.2755], [-40.2982, -14.2761], [-40.2444, -14.2568], [-40.1959, -14.2394], [-40.1811, -14.2241], [-40.1824, -14.223], [-40.1861, -14.2237], [-40.188, -14.2247], [-40.19, -14.2247], [-40.1916, -14.224], [-40.1923, -14.2224], [-40.1911, -14.2206], [-40.1872, -14.2185], [-40.1865, -14.217], [-40.1864, -14.2155], [-40.187, -14.2125], [-40.1889, -14.2108], [-40.1884, -14.2082], [-40.1874, -14.2065], [-40.1855, -14.2054], [-40.1853, -14.2043], [-40.1888, -14.2014], [-40.1888, -14.2], [-40.1872, -14.1981], [-40.1873, -14.1952], [-40.1866, -14.1942], [-40.1865, -14.1923], [-40.184, -14.1901], [-40.1836, -14.1891], [-40.1844, -14.1851], [-40.1845, -14.1831], [-40.1841, -14.1797], [-40.1834, -14.1781], [-40.1825, -14.1778], [-40.1817, -14.1761], [-40.1797, -14.1754], [-40.1793, -14.1731], [-40.1799, -14.1713], [-40.1814, -14.1691], [-40.1816, -14.1672], [-40.1808, -14.1643], [-40.1799, -14.1632], [-40.1793, -14.1606], [-40.1784, -14.1597], [-40.1774, -14.1554], [-40.1763, -14.1527], [-40.1762, -14.1511], [-40.1762, -14.1455], [-40.1753, -14.1416], [-40.1761, -14.1393], [-40.1761, -14.1367], [-40.1754, -14.1349], [-40.1761, -14.1334], [-40.1784, -14.132], [-40.1794, -14.1305], [-40.1804, -14.1273], [-40.1809, -14.1245], [-40.1816, -14.1231], [-40.1849, -14.1217], [-40.1878, -14.122], [-40.1899, -14.1249], [-40.1931, -14.1273], [-40.1939, -14.1277], [-40.196, -14.127], [-40.1976, -14.1271], [-40.1998, -14.1261], [-40.204, -14.1257], [-40.2109, -14.1257], [-40.2123, -14.1237], [-40.2137, -14.1224], [-40.2141, -14.1207], [-40.2154, -14.1196], [-40.2164, -14.1171], [-40.2168, -14.1146], [-40.2178, -14.113], [-40.2174, -14.1121], [-40.2192, -14.1092], [-40.2191, -14.1076], [-40.2199, -14.1064], [-40.2223, -14.1048], [-40.2217, -14.1017], [-40.2203, -14.1008], [-40.2206, -14.0985], [-40.2195, -14.0976], [-40.2213, -14.0969], [-40.2215, -14.0956], [-40.2205, -14.0943], [-40.2193, -14.094], [-40.2183, -14.0915], [-40.2178, -14.0888], [-40.2153, -14.0881], [-40.2148, -14.087], [-40.215, -14.0844], [-40.2158, -14.0836], [-40.2162, -14.0811], [-40.2179, -14.079], [-40.2196, -14.0788], [-40.2206, -14.0777], [-40.2194, -14.0745], [-40.2199, -14.0721], [-40.2174, -14.0713], [-40.2169, -14.0701], [-40.2153, -14.0695], [-40.214, -14.0696], [-40.2119, -14.0711], [-40.2107, -14.0715], [-40.2075, -14.0706], [-40.2077, -14.0686], [-40.2073, -14.0669], [-40.2079, -14.0662], [-40.2072, -14.0643], [-40.2078, -14.0629], [-40.2072, -14.062], [-40.2077, -14.0601], [-40.2061, -14.0596], [-40.2058, -14.0566], [-40.207, -14.0549], [-40.2053, -14.0539], [-40.2059, -14.0518], [-40.2076, -14.0502], [-40.2086, -14.0468], [-40.2084, -14.0436], [-40.2087, -14.0424], [-40.2111, -14.0392], [-40.2121, -14.0389], [-40.2159, -14.0361], [-40.2192, -14.0358], [-40.2205, -14.0344], [-40.2233, -14.0336], [-40.2255, -14.031], [-40.2266, -14.0307], [-40.2272, -14.0319], [-40.2321, -14.031], [-40.2335, -14.0314], [-40.2356, -14.0313], [-40.2402, -14.0325], [-40.2425, -14.0343], [-40.2437, -14.0358], [-40.2456, -14.0395], [-40.2463, -14.0416], [-40.2472, -14.0423], [-40.249, -14.042], [-40.2498, -14.04], [-40.2513, -14.0393], [-40.2559, -14.0385], [-40.259, -14.0374], [-40.262, -14.0355], [-40.2644, -14.0321], [-40.268, -14.0304], [-40.2738, -14.0264], [-40.2796, -14.0231], [-40.2812, -14.0227], [-40.285, -14.0202], [-40.2889, -14.0187], [-40.2913, -14.0184], [-40.2942, -14.0172], [-40.296, -14.0153], [-40.3, -14.0122], [-40.3021, -14.0122], [-40.3044, -14.0114], [-40.3071, -14.0089], [-40.3085, -14.0083], [-40.3134, -14.0077], [-40.3155, -14.0062], [-40.3174, -14.0059], [-40.3186, -14.0063], [-40.3195, -14.0107], [-40.3207, -14.0108], [-40.3228, -14.0091], [-40.3252, -14.0088], [-40.3263, -14.0099], [-40.3269, -14.0132], [-40.3282, -14.014], [-40.3286, -14.0154], [-40.3305, -14.0154], [-40.3339, -14.0141], [-40.3364, -14.0141], [-40.3371, -14.0182], [-40.3399, -14.0199], [-40.3419, -14.0218], [-40.3452, -14.0232], [-40.3467, -14.0253], [-40.3467, -14.0296], [-40.3485, -14.0312], [-40.3493, -14.0329], [-40.5099, -13.9498], [-40.5102, -13.9487], [-40.5128, -13.9479], [-40.5131, -13.946], [-40.5119, -13.9434], [-40.5122, -13.9423], [-40.5137, -13.9414], [-40.5151, -13.9423], [-40.5168, -13.9412], [-40.5174, -13.9393], [-40.5173, -13.9374], [-40.5157, -13.9349], [-40.5158, -13.928], [-40.515, -13.9239], [-40.5155, -13.9224], [-40.5164, -13.9218], [-40.5195, -13.922], [-40.5217, -13.9204], [-40.5219, -13.9197], [-40.5193, -13.9179], [-40.517, -13.9175], [-40.5146, -13.9161], [-40.5138, -13.9128], [-40.5121, -13.9113], [-40.5104, -13.9108], [-40.5098, -13.9075], [-40.5108, -13.9039], [-40.5105, -13.9027], [-40.5092, -13.902], [-40.5073, -13.9019], [-40.5065, -13.9007], [-40.5069, -13.897], [-40.5067, -13.8958], [-40.5051, -13.8926], [-40.5056, -13.8881], [-40.5054, -13.8867], [-40.51, -13.8887], [-40.5149, -13.8893], [-40.5209, -13.8891], [-40.5276, -13.8879], [-40.529, -13.8868], [-40.5296, -13.8851], [-40.5297, -13.8822], [-40.5291, -13.8765], [-40.5291, -13.8696], [-40.5303, -13.8677], [-40.5326, -13.8666], [-40.535, -13.866], [-40.5371, -13.8661], [-40.5401, -13.8669], [-40.5437, -13.8683], [-40.5469, -13.8702], [-40.551, -13.8722], [-40.5569, -13.8728], [-40.5697, -13.8722], [-40.5757, -13.8723], [-40.5807, -13.8717], [-40.5867, -13.8703], [-40.59, -13.8681], [-40.5929, -13.8665], [-40.5975, -13.866], [-40.6007, -13.8661], [-40.6053, -13.867], [-40.6074, -13.8666], [-40.6101, -13.8653], [-40.6115, -13.8629], [-40.6125, -13.8586], [-40.6137, -13.8567], [-40.6164, -13.8548], [-40.6197, -13.8538], [-40.6283, -13.8526], [-40.6322, -13.8514], [-40.6347, -13.8493], [-40.6417, -13.8412], [-40.6438, -13.8387], [-40.6461, -13.8365], [-40.648, -13.8357], [-40.6497, -13.8358], [-40.6518, -13.8366], [-40.6556, -13.8394], [-40.658, -13.8411], [-40.6625, -13.8427], [-40.6677, -13.8433], [-40.6695, -13.8444], [-40.6715, -13.8463], [-40.673, -13.8483], [-40.6755, -13.8502], [-40.6785, -13.8504], [-40.6805, -13.8495], [-40.6824, -13.8477], [-40.6856, -13.8454], [-40.6886, -13.8428], [-40.6909, -13.8401], [-40.6938, -13.8382], [-40.6984, -13.8373], [-40.7042, -13.8365], [-40.706, -13.8369], [-40.7078, -13.8379], [-40.7105, -13.8377], [-40.7123, -13.8385], [-40.7148, -13.841], [-40.7168, -13.8428], [-40.7195, -13.8425], [-40.7214, -13.8415], [-40.7234, -13.8391], [-40.7246, -13.8368], [-40.7259, -13.8318], [-40.7267, -13.8306], [-40.7296, -13.8285], [-40.732, -13.8294], [-40.734, -13.8324], [-40.735, -13.8349], [-40.7361, -13.8358], [-40.739, -13.8359], [-40.7467, -13.8352], [-40.7582, -13.8352], [-40.7643, -13.8353], [-40.7692, -13.8357], [-40.7728, -13.8356], [-40.7863, -13.8343], [-40.7904, -13.8342], [-40.794, -13.8347], [-40.7965, -13.8353], [-40.8026, -13.8379], [-40.8058, -13.8384], [-40.8114, -13.839], [-40.8142, -13.839], [-40.8187, -13.8395], [-40.8219, -13.8403], [-40.8284, -13.8429], [-40.8351, -13.8443], [-40.8388, -13.8454], [-40.8486, -13.8499], [-40.8504, -13.8503], [-40.8556, -13.8501], [-40.8588, -13.8495], [-40.8618, -13.8486], [-40.866, -13.848], [-40.8698, -13.8471], [-40.8719, -13.8449], [-40.8739, -13.8441], [-40.8778, -13.8437], [-40.8794, -13.8439], [-40.8825, -13.8461], [-40.885, -13.849], [-40.8859, -13.8525], [-40.8883, -13.8608], [-40.8897, -13.8663], [-40.8904, -13.8687], [-40.8934, -13.8733], [-40.8959, -13.8757], [-40.8979, -13.8772], [-40.9018, -13.8793], [-40.9036, -13.8819], [-40.9057, -13.8861], [-40.9085, -13.8876], [-40.9129, -13.8889], [-40.9146, -13.8891], [-40.9194, -13.8907], [-40.9214, -13.891], [-40.9263, -13.8916], [-40.9305, -13.8916], [-40.9336, -13.8922], [-40.9358, -13.8941], [-40.9365, -13.8958], [-40.9358, -13.8978], [-40.9342, -13.8995], [-40.9309, -13.9014], [-40.9295, -13.9034], [-40.9279, -13.9046], [-40.926, -13.9049], [-40.9243, -13.9045], [-40.9203, -13.9029], [-40.9159, -13.9009], [-40.9133, -13.9016], [-40.9105, -13.9069], [-40.9102, -13.9102], [-40.9108, -13.9127], [-40.9116, -13.9139], [-40.9151, -13.9159], [-40.9213, -13.9199], [-40.9237, -13.9207], [-40.9256, -13.9205], [-40.9289, -13.9192], [-40.9303, -13.9183], [-40.9321, -13.9164], [-40.9344, -13.913], [-40.9376, -13.9103], [-40.9417, -13.9087], [-40.9453, -13.9081], [-40.9484, -13.9064], [-40.9498, -13.9063], [-40.9501, -13.911], [-40.9494, -13.9141], [-40.9498, -13.9176], [-40.9491, -13.9214], [-40.9475, -13.9247], [-40.9473, -13.9267], [-40.9477, -13.9298], [-40.9478, -13.9344], [-40.9461, -13.9421], [-40.9463, -13.9469], [-40.9472, -13.95], [-40.9472, -13.9513], [-40.9463, -13.9554], [-40.9447, -13.9586], [-40.9423, -13.9601], [-40.9389, -13.9598], [-40.9371, -13.9601], [-40.9342, -13.9615], [-40.9333, -13.9645], [-40.9338, -13.9689], [-40.9329, -13.971], [-40.9317, -13.9724], [-40.9312, -13.9739], [-40.9322, -13.9797], [-40.9317, -13.9815], [-40.9303, -13.9829], [-40.928, -13.9829], [-40.9246, -13.9821], [-40.9223, -13.983], [-40.92, -13.9843], [-40.9173, -13.9852], [-40.9142, -13.9852], [-40.9093, -13.9848], [-40.9075, -13.9844], [-40.9052, -13.9822], [-40.9031, -13.9815], [-40.9019, -13.9827], [-40.8994, -13.9866], [-40.8975, -13.9871], [-40.8951, -13.9871], [-40.8895, -13.9842], [-40.8876, -13.9836], [-40.8865, -13.984], [-40.8849, -13.9867], [-40.8802, -13.9891], [-40.8793, -13.9901], [-40.8789, -13.992], [-40.8776, -13.9944], [-40.876, -13.9959], [-40.8732, -13.9975], [-40.8722, -13.9986], [-40.8711, -14.0038], [-40.8707, -14.0069], [-40.8697, -14.0091], [-40.8683, -14.0111], [-40.8663, -14.0165], [-40.8638, -14.0215], [-40.8626, -14.0234], [-40.8611, -14.0247], [-40.8607, -14.0259], [-40.8634, -14.0264], [-40.8666, -14.0276], [-40.8675, -14.0285], [-40.8691, -14.0314], [-40.8, -14.0647], [-40.6924, -14.1166], [-40.6874, -14.1191], [-40.6871, -14.1208], [-40.6857, -14.1223], [-40.6838, -14.1233], [-40.6812, -14.1251], [-40.6811, -14.1285], [-40.6799, -14.1309], [-40.6816, -14.134], [-40.6802, -14.1376], [-40.6791, -14.1424], [-40.6787, -14.1457], [-40.6514, -14.14], [-40.6284, -14.1534], [-40.5756, -14.1799], [-40.5306, -14.1957], [-40.5283, -14.1947], [-40.5244, -14.1942], [-40.5214, -14.195], [-40.5186, -14.1974], [-40.5127, -14.1994], [-40.508, -14.1994], [-40.5033, -14.2004], [-40.5006, -14.2018], [-40.4985, -14.2018], [-40.4961, -14.2033], [-40.4934, -14.2031], [-40.4912, -14.2019], [-40.4888, -14.2021], [-40.4884, -14.2037], [-40.4886, -14.2056], [-40.488, -14.2079], [-40.4885, -14.2102], [-40.4911, -14.2126], [-40.4917, -14.2139], [-40.4918, -14.2181], [-40.4926, -14.222], [-40.4922, -14.2256], [-40.4918, -14.2265], [-40.4885, -14.2286], [-40.4878, -14.2301], [-40.4842, -14.2325], [-40.4826, -14.233], [-40.4814, -14.2342], [-40.4786, -14.2335], [-40.474, -14.2349], [-40.4706, -14.2364], [-40.4722, -14.239], [-40.4728, -14.2418], [-40.4723, -14.247], [-40.4732, -14.2485], [-40.4735, -14.251], [-40.4731, -14.2549], [-40.4714, -14.2587], [-40.4679, -14.2621], [-40.466, -14.2653], [-40.4641, -14.2649], [-40.4634, -14.2623], [-40.4611, -14.2594], [-40.4571, -14.2605], [-40.4556, -14.2602], [-40.4557, -14.2577], [-40.4541, -14.257], [-40.4514, -14.2576], [-40.4443, -14.2625], [-40.4418, -14.2649], [-40.4401, -14.2651], [-40.4379, -14.2641], [-40.4368, -14.2642], [-40.4302, -14.2683], [-40.4255, -14.27], [-40.4182, -14.2722], [-40.416, -14.2723], [-40.4117, -14.2719], [-40.4076, -14.2736], [-40.4048, -14.2727], [-40.4024, -14.2715], [-40.3991, -14.2691], [-40.3969, -14.268], [-40.3952, -14.2651], [-40.3931, -14.2646], [-40.3879, -14.2657]]]}, "properties": {"codigo_ibge": "2920403", "nome": "Macururé", "territorio": "Itaparica - Bahia"}}, {"type": "Feature", "geometry": {"type": "Polygon", "coordinates": [[[-41.7494, -13.6613], [-41.7482, -13.6621], [-41.7468, -13.6642], [-41.7453, -13.6675], [-41.745, -13.67], [-41.7434, -13.6714], [-41.7395, -13.6714], [-41.7356, -13.6708], [-41.7346, -13.6711], [-41.7324, -13.6727], [-41.7305, -13.6749], [-41.7285, -13.678], [-41.7271, -13.6792], [-41.7254, -13.68], [-41.7215, -13.6797], [-41.718, -13.6819], [-41.7165, -13.6844], [-41.7151, -13.6862], [-41.7142, -13.6862], [-41.7121, -13.6853], [-41.7114, -13.6855], [-41.7089, -13.6882], [-41.7075, -13.6907], [-41.7052, -13.6932], [-41.7001, -13.6996], [-41.6997, -13.7024], [-41.7014, -13.7053], [-41.701, -13.7065], [-41.6968, -13.7087], [-41.6968, -13.7104], [-41.6961, -13.7127], [-41.6948, -13.7121], [-41.6933, -13.7121], [-41.6913, -13.7127], [-41.6897, -13.7127], [-41.6878, -13.7135], [-41.6858, -13.7155], [-41.6864, -13.7182], [-41.6891, -13.7204], [-41.69, -13.722], [-41.6888, -13.7268], [-41.688, -13.728], [-41.6874, -13.7308], [-41.6879, -13.7333], [-41.6899, -13.7353], [-41.6895, -13.7373], [-41.6885, -13.7386], [-41.6863, -13.739], [-41.6841, -13.7403], [-41.6814, -13.7438], [-41.6771, -13.7486], [-41.6737, -13.7516], [-41.6686, -13.7536], [-41.6642, -13.7542], [-41.6609, -13.756], [-41.6569, -13.7592], [-41.655, -13.762], [-41.655, -13.7635], [-41.6557, -13.7665], [-41.6552, -13.7692], [-41.6539, -13.7706], [-41.6505, -13.7739], [-41.646, -13.777], [-41.6437, -13.7793], [-41.6416, -13.7802], [-41.6399, -13.7828], [-41.64, -13.7847], [-41.6412, -13.7864], [-41.6388, -13.7882], [-41.6384, -13.7899], [-41.6401, -13.7917], [-41.64, -13.7949], [-41.6369, -13.7989], [-41.6348, -13.7994], [-41.6337, -13.8009], [-41.6279, -13.8048], [-41.6255, -13.8085], [-41.6214, -13.8108], [-41.6193, -13.8109], [-41.6183, -13.8127], [-41.6185, -13.8146], [-41.6175, -13.8161], [-41.6173, -13.8174], [-41.615, -13.8198], [-41.6141, -13.8213], [-41.6116, -13.8246], [-41.6073, -13.8298], [-41.6044, -13.833], [-41.6028, -13.8368], [-41.5999, -13.8424], [-41.5995, -13.8466], [-41.6, -13.8481], [-41.5996, -13.8501], [-41.598, -13.8518], [-41.5947, -13.8532], [-41.5937, -13.8553], [-41.5923, -13.8567], [-41.5898, -13.8568], [-41.5874, -13.8575], [-41.5853, -13.8596], [-41.5831, -13.8609], [-41.5797, -13.8644], [-41.5775, -13.8675], [-41.5771, -13.8692], [-41.5769, -13.8725], [-41.5748, -13.8756], [-41.5721, -13.8815], [-41.5695, -13.8912], [-41.5683, -13.8963], [-41.5681, -13.8983], [-41.5681, -13.9016], [-41.5674, -13.9042], [-41.5668, -13.908], [-41.5661, -13.9108], [-41.5657, -13.9139], [-41.5644, -13.9174], [-41.5633, -13.9244], [-41.5619, -13.9268], [-41.5606, -13.9305], [-41.5602, -13.9334], [-41.5611, -13.9361], [-41.561, -13.9392], [-41.5592, -13.9443], [-41.4939, -13.9165], [-41.4921, -13.9146], [-41.4922, -13.9128], [-41.4933, -13.9116], [-41.497, -13.911], [-41.4987, -13.9095], [-41.4995, -13.9065], [-41.4987, -13.9049], [-41.4987, -13.9034], [-41.5006, -13.9027], [-41.5036, -13.9033], [-41.5074, -13.9029], [-41.5079, -13.9019], [-41.5059, -13.8999], [-41.5048, -13.8958], [-41.5048, -13.894], [-41.5056, -13.8925], [-41.5081, -13.8894], [-41.5087, -13.8865], [-41.5078, -13.884], [-41.5078, -13.8828], [-41.5098, -13.8812], [-41.5104, -13.8798], [-41.5104, -13.877], [-41.511, -13.8755], [-41.5109, -13.8739], [-41.5097, -13.8724], [-41.5099, -13.8699], [-41.5136, -13.8698], [-41.5168, -13.8691], [-41.5189, -13.8675], [-41.5187, -13.8657], [-41.5153, -13.867], [-41.514, -13.8661], [-41.5144, -13.8651], [-41.517, -13.8631], [-41.5177, -13.8577], [-41.5173, -13.857], [-41.5149, -13.8567], [-41.5138, -13.8549], [-41.5145, -13.8537], [-41.5161, -13.8529], [-41.5181, -13.8508], [-41.5196, -13.8503], [-41.5208, -13.8492], [-41.5205, -13.8474], [-41.517, -13.8459], [-41.5159, -13.8441], [-41.5172, -13.8405], [-41.5173, -13.835], [-41.5187, -13.8323], [-41.5197, -13.8313], [-41.5216, -13.8305], [-41.5243, -13.8304], [-41.5264, -13.8299], [-41.5282, -13.8276], [-41.5278, -13.8263], [-41.5239, -13.8254], [-41.523, -13.8238], [-41.5233, -13.8215], [-41.5256, -13.8218], [-41.5268, -13.821], [-41.5264, -13.8187], [-41.5237, -13.8169], [-41.523, -13.8158], [-41.5235, -13.814], [-41.5264, -13.8144], [-41.5284, -13.814], [-41.5315, -13.8128], [-41.535, -13.8119], [-41.5363, -13.8108], [-41.5388, -13.8063], [-41.5414, -13.8036], [-41.542, -13.8026], [-41.5424, -13.7994], [-41.5421, -13.7975], [-41.541, -13.7958], [-41.5381, -13.7935], [-41.537, -13.7921], [-41.5371, -13.7912], [-41.5393, -13.7886], [-41.539, -13.7866], [-41.5375, -13.7853], [-41.5338, -13.7848], [-41.5317, -13.7837], [-41.5313, -13.7818], [-41.5323, -13.781], [-41.5356, -13.7818], [-41.5376, -13.7818], [-41.5413, -13.7794], [-41.5433, -13.7778], [-41.5434, -13.7762], [-41.5425, -13.7752], [-41.5392, -13.7734], [-41.5385, -13.7711], [-41.5399, -13.7698], [-41.5426, -13.7685], [-41.5435, -13.7649], [-41.5443, -13.7627], [-41.5451, -13.7618], [-41.5469, -13.7616], [-41.5513, -13.763], [-41.5574, -13.7631], [-41.5586, -13.7627], [-41.561, -13.7606], [-41.5622, -13.7602], [-41.5654, -13.76], [-41.5698, -13.7586], [-41.5718, -13.7575], [-41.5734, -13.7554], [-41.5772, -13.7521], [-41.5772, -13.7507], [-41.5746, -13.7483], [-41.5739, -13.7464], [-41.5739, -13.7448], [-41.5751, -13.742], [-41.5742, -13.7391], [-41.5747, -13.7372], [-41.5774, -13.7342], [-41.5788, -13.7317], [-41.5787, -13.7294], [-41.5776, -13.7278], [-41.5776, -13.7267], [-41.5792, -13.7255], [-41.5817, -13.7249], [-41.5883, -13.7249], [-41.5903, -13.724], [-41.5903, -13.723], [-41.5883, -13.7213], [-41.5885, -13.7175], [-41.5871, -13.7156], [-41.5868, -13.7139], [-41.5872, -13.7123], [-41.5868, -13.71], [-41.5874, -13.7079], [-41.5888, -13.7079], [-41.5923, -13.71], [-41.5948, -13.7128], [-41.5966, -13.7125], [-41.5968, -13.71], [-41.5974, -13.7092], [-41.5998, -13.7081], [-41.6002, -13.7067], [-41.5975, -13.702], [-41.5969, -13.7013], [-41.5937, -13.6997], [-41.5923, -13.6978], [-41.5924, -13.6961], [-41.5936, -13.6935], [-41.593, -13.6907], [-41.5932, -13.6894], [-41.5958, -13.686], [-41.5976, -13.6844], [-41.5972, -13.6815], [-41.5995, -13.681], [-41.601, -13.6799], [-41.6021, -13.6777], [-41.603, -13.6747], [-41.6036, -13.6736], [-41.6053, -13.6722], [-41.6057, -13.6695], [-41.6052, -13.6677], [-41.6051, -13.6652], [-41.6056, -13.6631], [-41.6081, -13.6602], [-41.6078, -13.6578], [-41.6058, -13.6552], [-41.6056, -13.654], [-41.606, -13.6513], [-41.6056, -13.6485], [-41.6047, -13.6469], [-41.6054, -13.6457], [-41.6119, -13.6453], [-41.6129, -13.6444], [-41.613, -13.6424], [-41.6116, -13.6411], [-41.6088, -13.641], [-41.6058, -13.6415], [-41.6047, -13.6402], [-41.6062, -13.6387], [-41.607, -13.6371], [-41.6083, -13.6296], [-41.6101, -13.6285], [-41.6126, -13.6287], [-41.6158, -13.6276], [-41.6168, -13.6265], [-41.6168, -13.6245], [-41.6152, -13.6242], [-41.6056, -13.6269], [-41.6038, -13.6263], [-41.6045, -13.6212], [-41.6056, -13.6181], [-41.606, -13.614], [-41.6067, -13.6117], [-41.6063, -13.6109], [-41.6037, -13.6092], [-41.6037, -13.6079], [-41.6045, -13.6051], [-41.6065, -13.6039], [-41.6068, -13.6028], [-41.6059, -13.6012], [-41.6067, -13.5992], [-41.6127, -13.5968], [-41.6145, -13.5951], [-41.6146, -13.5932], [-41.6132, -13.5911], [-41.6138, -13.5882], [-41.6131, -13.5873], [-41.6109, -13.5867], [-41.6071, -13.581], [-41.6074, -13.575], [-41.6085, -13.5721], [-41.6109, -13.5678], [-41.6108, -13.5665], [-41.6087, -13.5657], [-41.6082, -13.5635], [-41.6075, -13.562], [-41.6082, -13.5605], [-41.6104, -13.5597], [-41.6108, -13.5567], [-41.6136, -13.552], [-41.6138, -13.5507], [-41.6136, -13.5473], [-41.614, -13.5458], [-41.6156, -13.5445], [-41.6191, -13.5437], [-41.6205, -13.544], [-41.622, -13.5464], [-41.6232, -13.5477], [-41.6272, -13.5495], [-41.629, -13.5521], [-41.6291, -13.5539], [-41.6284, -13.5581], [-41.6295, -13.5616], [-41.6466, -13.5723], [-41.6481, -13.5709], [-41.6485, -13.5686], [-41.6495, -13.5657], [-41.6502, -13.5653], [-41.6529, -13.5649], [-41.6551, -13.5623], [-41.6574, -13.5602], [-41.6587, -13.5578], [-41.6588, -13.5567], [-41.6572, -13.5541], [-41.6572, -13.5528], [-41.6587, -13.5494], [-41.66, -13.5454], [-41.6612, -13.5433], [-41.6641, -13.5395], [-41.6646, -13.5384], [-41.6648, -13.535], [-41.6666, -13.5331], [-41.668, -13.5297], [-41.6698, -13.528], [-41.6717, -13.5277], [-41.6936, -13.5234], [-41.6938, -13.5227], [-41.696, -13.5217], [-41.6961, -13.5183], [-41.6957, -13.5171], [-41.6968, -13.5149], [-41.6973, -13.5115], [-41.6989, -13.5096], [-41.7, -13.5017], [-41.7001, -13.4995], [-41.7011, -13.4974], [-41.7007, -13.495], [-41.7, -13.494], [-41.7012, -13.487], [-41.7009, -13.4838], [-41.702, -13.4829], [-41.7023, -13.4814], [-41.6997, -13.4788], [-41.6977, -13.4786], [-41.6996, -13.4761], [-41.7004, -13.4736], [-41.703, -13.4695], [-41.7047, -13.4676], [-41.708, -13.4659], [-41.7086, -13.4639], [-41.71, -13.4621], [-41.7115, -13.461], [-41.7126, -13.4597], [-41.7133, -13.4579], [-41.7157, -13.4584], [-41.7177, -13.4581], [-41.7198, -13.4583], [-41.7219, -13.457], [-41.7235, -13.4536], [-41.7288, -13.4534], [-41.7304, -13.4524], [-41.7327, -13.4496], [-41.7341, -13.4461], [-41.7351, -13.4447], [-41.7373, -13.4445], [-41.7415, -13.4428], [-41.7445, -13.4395], [-41.7495, -13.4397], [-41.7508, -13.4389], [-41.7523, -13.4392], [-41.7534, -13.4402], [-41.7591, -13.4419], [-41.761, -13.4419], [-41.7629, -13.4428], [-41.764, -13.4415], [-41.7652, -13.4388], [-41.7671, -13.4367], [-41.7696, -13.4348], [-41.7719, -13.4326], [-41.7735, -13.4284], [-41.7733, -13.426], [-41.7743, -13.4223], [-41.7703, -13.4181], [-41.7663, -13.4166], [-41.7623, -13.4164], [-41.7605, -13.4155], [-41.7591, -13.4139], [-41.7537, -13.4139], [-41.7527, -13.4118], [-41.7541, -13.4085], [-41.7544, -13.4049], [-41.7557, -13.4026], [-41.7549, -13.3969], [-41.7562, -13.3947], [-41.7559, -13.3938], [-41.7522, -13.3917], [-41.7513, -13.3904], [-41.7504, -13.3883], [-41.7509, -13.3853], [-41.7506, -13.3837], [-41.7494, -13.3824], [-41.7487, -13.3784], [-41.748, -13.376], [-41.7446, -13.3719], [-41.7424, -13.3669], [-41.7429, -13.3637], [-41.7439, -13.3605], [-41.7466, -13.3248], [-41.7468, -13.3265], [-41.7481, -13.3274], [-41.7506, -13.328], [-41.7525, -13.3301], [-41.7519, -13.3313], [-41.7532, -13.3324], [-41.7532, -13.3348], [-41.7553, -13.3375], [-41.7577, -13.3386], [-41.7584, -13.3399], [-41.7583, -13.3416], [-41.7589, -13.343], [-41.7611, -13.3443], [-41.7616, -13.3459], [-41.7629, -13.3473], [-41.7651, -13.3486], [-41.766, -13.3508], [-41.7653, -13.3533], [-41.7655, -13.3539], [-41.771, -13.3579], [-41.7743, -13.3576], [-41.7754, -13.3585], [-41.7763, -13.36], [-41.7776, -13.3594], [-41.7788, -13.3602], [-41.782, -13.3605], [-41.7833, -13.3617], [-41.7834, -13.3629], [-41.7823, -13.3643], [-41.7825, -13.3663], [-41.7854, -13.3674], [-41.7867, -13.3699], [-41.7876, -13.3711], [-41.7914, -13.3731], [-41.7919, -13.3747], [-41.7912, -13.3784], [-41.792, -13.3798], [-41.7946, -13.3811], [-41.7951, -13.382], [-41.7951, -13.3851], [-41.7938, -13.393], [-41.7928, -13.3971], [-41.7916, -13.4044], [-41.7919, -13.4056], [-41.7915, -13.4098], [-41.7915, -13.4122], [-41.792, -13.4152], [-41.7917, -13.4206], [-41.792, -13.4236], [-41.7955, -13.4239], [-41.7973, -13.4222], [-41.8022, -13.4196], [-41.8044, -13.4187], [-41.8061, -13.4173], [-41.8061, -13.4162], [-41.8051, -13.4151], [-41.8055, -13.4129], [-41.8063, -13.4121], [-41.8085, -13.413], [-41.8099, -13.412], [-41.8119, -13.4111], [-41.8115, -13.41], [-41.813, -13.4078], [-41.8153, -13.408], [-41.8189, -13.405], [-41.8205, -13.4017], [-41.8222, -13.4009], [-41.8244, -13.4007], [-41.8274, -13.3998], [-41.8291, -13.3986], [-41.8306, -13.3965], [-41.8329, -13.3954], [-41.8339, -13.394], [-41.8376, -13.3907], [-41.8387, -13.388], [-41.8403, -13.3853], [-41.8405, -13.3839], [-41.8429, -13.3821], [-41.8455, -13.3807], [-41.8528, -13.3742], [-41.8566, -13.3716], [-41.8624, -13.3683], [-41.8665, -13.3667], [-41.8687, -13.3655], [-41.8715, -13.3629], [-41.8725, -13.3606], [-41.8725, -13.3579], [-41.8728, -13.3545], [-41.8726, -13.3531], [-41.8717, -13.3512], [-41.8694, -13.3474], [-41.8697, -13.3457], [-41.8728, -13.3434], [-41.8758, -13.3398], [-41.8773, -13.3386], [-41.8824, -13.3332], [-41.8841, -13.3299], [-41.8849, -13.3279], [-41.9091, -13.3114], [-41.9114, -13.3197], [-41.916, -13.3341], [-41.9476, -13.3434], [-41.9492, -13.4027], [-41.9525, -13.4051], [-41.9537, -13.4081], [-41.9532, -13.4141], [-41.9529, -13.4153], [-41.9535, -13.4177], [-41.9563, -13.4202], [-41.9567, -13.4228], [-41.9566, -13.426], [-41.9561, -13.4293], [-41.9562, -13.4315], [-41.9576, -13.433], [-41.9594, -13.4339], [-41.9633, -13.4364], [-41.9651, -13.4385], [-41.9654, -13.442], [-41.9648, -13.4432], [-41.9628, -13.4444], [-41.9604, -13.4465], [-41.9602, -13.4484], [-41.9618, -13.4508], [-41.9643, -13.4524], [-41.9665, -13.4549], [-41.968, -13.459], [-41.9686, -13.4648], [-41.9682, -13.4698], [-41.967, -13.4751], [-41.9668, -13.4789], [-41.9674, -13.483], [-41.9688, -13.4872], [-41.9673, -13.4889], [-41.9613, -13.4899], [-41.9547, -13.4924], [-41.9517, -13.4951], [-41.9512, -13.4976], [-41.9541, -13.4999], [-41.9554, -13.5003], [-41.9582, -13.5027], [-41.9591, -13.5058], [-41.9598, -13.5068], [-41.9622, -13.5089], [-41.9634, -13.5103], [-41.9635, -13.5123], [-41.9649, -13.5149], [-41.9657, -13.5169], [-41.9633, -13.5224], [-41.9638, -13.5242], [-41.9649, -13.5253], [-41.9678, -13.5265], [-41.9681, -13.5275], [-41.966, -13.5267], [-41.9647, -13.5269], [-41.9622, -13.5285], [-41.9586, -13.5301], [-41.9558, -13.5293], [-41.9541, -13.531], [-41.9534, -13.5326], [-41.9519, -13.5335], [-41.9463, -13.5358], [-41.9462, -13.5379], [-41.9448, -13.5416], [-41.9434, -13.5429], [-41.941, -13.544], [-41.9397, -13.5433], [-41.9383, -13.5435], [-41.9326, -13.55], [-41.9291, -13.5528], [-41.9269, -13.5535], [-41.9244, -13.5529], [-41.9233, -13.5508], [-41.922, -13.5499], [-41.9176, -13.5509], [-41.9151, -13.5504], [-41.9146, -13.5481], [-41.9128, -13.547], [-41.911, -13.5479], [-41.9065, -13.5484], [-41.9029, -13.5495], [-41.8991, -13.5514], [-41.8964, -13.5515], [-41.8949, -13.5535], [-41.8923, -13.5542], [-41.8908, -13.5562], [-41.8894, -13.5565], [-41.8882, -13.5553], [-41.8861, -13.5575], [-41.8841, -13.559], [-41.8788, -13.5617], [-41.8768, -13.5603], [-41.8752, -13.5607], [-41.8742, -13.5616], [-41.8719, -13.5659], [-41.8703, -13.5673], [-41.8652, -13.5686], [-41.8625, -13.5714], [-41.8616, -13.5719], [-41.8597, -13.5715], [-41.8562, -13.5762], [-41.8556, -13.5778], [-41.8544, -13.5789], [-41.8527, -13.5796], [-41.8506, -13.5795], [-41.8515, -13.5814], [-41.8504, -13.5863], [-41.8493, -13.5878], [-41.8471, -13.5898], [-41.844, -13.593], [-41.8425, -13.5938], [-41.8397, -13.5974], [-41.8378, -13.5989], [-41.8368, -13.6016], [-41.8339, -13.6032], [-41.8315, -13.605], [-41.8274, -13.6069], [-41.8249, -13.6075], [-41.8236, -13.6085], [-41.823, -13.6101], [-41.8199, -13.6123], [-41.8181, -13.6126], [-41.8154, -13.611], [-41.8126, -13.6109], [-41.8106, -13.6114], [-41.8093, -13.6125], [-41.8075, -13.6181], [-41.8068, -13.6193], [-41.8045, -13.6213], [-41.8031, -13.6242], [-41.8029, -13.6273], [-41.802, -13.6317], [-41.8009, -13.6336], [-41.7988, -13.6356], [-41.7972, -13.6361], [-41.7915, -13.6396], [-41.7901, -13.6391], [-41.7887, -13.6371], [-41.7871, -13.6361], [-41.7845, -13.6374], [-41.7784, -13.6425], [-41.776, -13.6459], [-41.7749, -13.648], [-41.772, -13.6505], [-41.7711, -13.6522], [-41.7688, -13.6542], [-41.7623, -13.6609], [-41.7608, -13.6618], [-41.7568, -13.6628], [-41.7535, -13.6626], [-41.7517, -13.6608], [-41.7494, -13.6613]]]}, "properties": {"codigo_ibge": "2926707", "nome": "Rodelas", "territorio": "Itaparica - Bahia"}}, {"type": "Feature", "geometry": {"type": "Polygon", "coordinates": [[[-39.0645, -8.7316], [-39.0702, -8.7303], [-39.1022, -8.72], [-39.113, -8.7183], [-39.1218, -8.7161], [-39.1294, -8.7154], [-39.1352, -8.7137], [-39.1439, -8.7125], [-39.1486, -8.7109], [-39.1538, -8.7086], [-39.1567, -8.7068], [-39.1616, -8.7018], [-39.1675, -8.6925], [-39.1687, -8.6915], [-39.1703, -8.6929], [-39.174, -8.7013], [-39.1755, -8.703], [-39.1785, -8.7042], [-39.181, -8.7063], [-39.1849, -8.7059], [-39.1904, -8.7067], [-39.1919, -8.7072], [-39.1951, -8.7096], [-39.2008, -8.711], [-39.2176, -8.7085], [-39.2187, -8.7089], [-39.2212, -8.7112], [-39.2222, -8.7117], [-39.2244, -8.7116], [-39.2285, -8.7103], [-39.2306, -8.7088], [-39.2343, -8.7053], [-39.2409, -8.6913], [-39.2449, -8.686], [-39.2455, -8.6841], [-39.2457, -8.6763], [-39.248, -8.6688], [-39.2478, -8.6676], [-39.2457, -8.664], [-39.2455, -8.6624], [-39.2469, -8.6543], [-39.2467, -8.6476], [-39.2456, -8.6454], [-39.2416, -8.6418], [-39.2411, -8.6403], [-39.2419, -8.6363], [-39.2439, -8.6317], [-39.2465, -8.6268], [-39.2479, -8.625], [-39.2532, -8.62], [-39.2634, -8.6152], [-39.2647, -8.6139], [-39.2677, -8.6088], [-39.269, -8.6037], [-39.2727, -8.5965], [-39.2719, -8.5898], [-39.2726, -8.5838], [-39.2752, -8.5768], [-39.2814, -8.5705], [-39.2841, -8.5659], [-39.2864, -8.5638], [-39.2932, -8.5606], [-39.3024, -8.5606], [-39.3125, -8.5583], [-39.3204, -8.56], [-39.3244, -8.56], [-39.3323, -8.5583], [-39.3423, -8.5597], [-39.3451, -8.5585], [-39.3533, -8.55], [-39.3568, -8.5475], [-39.3598, -8.547], [-39.361, -8.5494], [-39.3621, -8.5494], [-39.3635, -8.5524], [-39.3646, -8.5532], [-39.3655, -8.5551], [-39.3663, -8.5556], [-39.368, -8.5553], [-39.3693, -8.5579], [-39.3705, -8.559], [-39.3719, -8.562], [-39.3736, -8.5633], [-39.3901, -8.6015], [-39.4193, -8.6689], [-39.4494, -8.7385], [-39.4671, -8.7794], [-39.4916, -8.8359], [-39.4845, -8.8787], [-39.4685, -8.9762], [-39.4392, -9.0523], [-39.4082, -9.1331], [-39.3512, -9.1573], [-39.3501, -9.1568], [-39.345, -9.1559], [-39.3429, -9.1547], [-39.3423, -9.1533], [-39.3423, -9.1514], [-39.3434, -9.1482], [-39.345, -9.1458], [-39.345, -9.1429], [-39.3443, -9.1408], [-39.3419, -9.1386], [-39.3406, -9.1361], [-39.3403, -9.134], [-39.3413, -9.1282], [-39.3411, -9.1264], [-39.3405, -9.125], [-39.3383, -9.1223], [-39.338, -9.121], [-39.3356, -9.1176], [-39.3345, -9.1152], [-39.3322, -9.1113], [-39.3309, -9.1103], [-39.3274, -9.1103], [-39.3268, -9.1095], [-39.3279, -9.103], [-39.3269, -9.1007], [-39.3263, -9.0982], [-39.326, -9.095], [-39.3239, -9.0904], [-39.3227, -9.0873], [-39.3205, -9.0799], [-39.3191, -9.0764], [-39.3169, -9.0721], [-39.3153, -9.0655], [-39.3148, -9.0604], [-39.3124, -9.057], [-39.3093, -9.0514], [-39.3066, -9.0484], [-39.3023, -9.0446], [-39.3002, -9.0448], [-39.2982, -9.0439], [-39.2948, -9.0415], [-39.2917, -9.0388], [-39.2888, -9.0348], [-39.2834, -9.0322], [-39.2814, -9.0318], [-39.2799, -9.0306], [-39.2795, -9.0294], [-39.2796, -9.026], [-39.2805, -9.0193], [-39.2806, -9.0136], [-39.28, -9.011], [-39.2791, -9.0101], [-39.2763, -9.0086], [-39.2748, -9.0074], [-39.2711, -9.003], [-39.2707, -9.0002], [-39.2686, -8.9967], [-39.2666, -8.9926], [-39.2654, -8.9907], [-39.2641, -8.9873], [-39.2642, -8.9826], [-39.2658, -8.9784], [-39.2657, -8.9726], [-39.2648, -8.9676], [-39.265, -8.9644], [-39.2635, -8.9605], [-39.2633, -8.9579], [-39.2641, -8.9567], [-39.2658, -8.9525], [-39.2667, -8.9513], [-39.2687, -8.9507], [-39.27, -8.9464], [-39.2714, -8.9436], [-39.1404, -8.8667], [-39.1055, -8.8462], [-39.0843, -8.7907], [-39.0826, -8.7861], [-39.082, -8.7823], [-39.0814, -8.7768], [-39.0784, -8.7745], [-39.0763, -8.7717], [-39.0747, -8.7692], [-39.0737, -8.7657], [-39.0721, -8.7625], [-39.0716, -8.7597], [-39.0702, -8.7558], [-39.0695, -8.7524], [-39.0684, -8.7492], [-39.0674, -8.7454], [-39.0664, -8.7426], [-39.0656, -8.7412], [-39.0655, -8.7374], [-39.0652, -8.7361], [-39.0655, -8.7344], [-39.0645, -8.7316]]]}, "properties": {"codigo_ibge": "2900207", "nome": "Abaré", "territorio": "Itaparica - Bahia"}}]}